FLOCK 4G-7              
1 62624U 25009R   26068.79996108  .00011422  00000+0  43168-3 0  9991
2 62624  97.3984 150.8270 0001396 336.9783  23.1393 15.27141471 63725
STARLINK-35905          
1 67048U 25294U   26067.28562897  .00045128  00000+0  16404-2 0  9991
2 67048  43.0005  46.0731 0001091 271.0703  89.0024 15.27561392 14583
